{"fetched_at":"2026-03-30T06:02:59Z","count":15439,"tles":[{"name":"STARLINK-31241","line1":"1 59045U 24038Y   26087.83547138 -.00000020  00000+0  87830-5 0  9995","line2":"2 59045  43.0028 275.6722 0001021 294.4970  65.5775 15.27581349117786","category":"Starlink"}]}