{
  "norad_id": 59045,
  "name": "STARLINK-31241",
  "history": [
    {
      "epoch": "2026-03-28T20:03:04.727232Z",
      "apogee_km": 483.74558333931054,
      "perigee_km": 482.3445299633413,
      "latitude_deg": -7.957149694800708e-06,
      "longitude_deg": 148.65228064510578,
      "height_km": 482.53123689030195,
      "semi_major_axis_km": 6861.182056651325,
      "eccentricity": 0.0001021,
      "inclination_deg": 43.0028,
      "raan_deg": 275.6722,
      "arg_perigee_deg": 294.497,
      "mean_anomaly_deg": 65.5775,
      "mean_motion_rev_day": 15.27581349
    }
  ]
}